start=new Date('2022-02-13T00:00:00.000Z').valueOf();
sats=[{"MEAN_MOTION":"15.09762492","ELEMENT_SET_NO":"999","PERIOD":"95.379","INCLINATION":"53.0554","SITE":"AFETR","REV_AT_EPOCH":"5418","TLE_LINE2":"2 47737  53.0554 327.1232 0001580  65.5136 294.6019 15.09762492 54186","SEMIMAJOR_AXIS":"6915.062","CENTER_NAME":"EARTH","MEAN_ANOMALY":"294.6019","LAUNCH_DATE":"2021-03-04","REF_FRAME":"TEME","TIME_SYSTEM":"UTC","PERIAPSIS":"535.835","EPHEMERIS_TYPE":"0","TLE_LINE1":"1 47737U 21017R   22043.73312346  .00034788  00000-0  21383-2 0  9998","EPOCH":"2022-02-12T17:35:41.866944","ECCENTRICITY":"0.00015800","OBJECT_NAME":"STARLINK-2148","ARG_OF_PERICENTER":"65.5136","APOAPSIS":"538.020","CLASSIFICATION_TYPE":"U","FILE":"3298862","OBJECT_TYPE":"PAYLOAD","COUNTRY_CODE":"US","MEAN_ELEMENT_THEORY":"SGP4","RA_OF_ASC_NODE":"327.1232","NORAD_CAT_ID":"47737","DECAY_DATE":null,"MEAN_MOTION_DOT":"0.00034788","GP_ID":"195829974","RCS_SIZE":"LARGE","MEAN_MOTION_DDOT":"0.0000000000000","BSTAR":"0.00213830000000","OBJECT_ID":"2021-017R"},{"OBJECT_NAME":"STARLINK-2149","ARG_OF_PERICENTER":"223.7133","APOAPSIS":"548.518","CLASSIFICATION_TYPE":"U","FILE":"3298493","TLE_LINE1":"1 47738U 21017S   22043.35405866  .00002487  00000-0  18577-3 0  9990","EPHEMERIS_TYPE":"0","PERIAPSIS":"545.844","EPOCH":"2022-02-12T08:29:50.668224","ECCENTRICITY":"0.00019300","LAUNCH_DATE":"2021-03-04","REF_FRAME":"TEME","SEMIMAJOR_AXIS":"6925.316","TLE_LINE2":"2 47738  53.0551  34.0452 0001930 223.7133 136.3703 15.06410651 53899","MEAN_ANOMALY":"136.3703","CENTER_NAME":"EARTH","TIME_SYSTEM":"UTC","MEAN_MOTION":"15.06410651","PERIOD":"95.591","ELEMENT_SET_NO":"999","REV_AT_EPOCH":"5389","SITE":"AFETR","INCLINATION":"53.0551","BSTAR":"0.00018577000000","OBJECT_ID":"2021-017S","MEAN_MOTION_DDOT":"0.0000000000000","NORAD_CAT_ID":"47738","DECAY_DATE":null,"RCS_SIZE":"LARGE","GP_ID":"195818997","MEAN_MOTION_DOT":"0.00002487","COUNTRY_CODE":"US","OBJECT_TYPE":"PAYLOAD","MEAN_ELEMENT_THEORY":"SGP4","RA_OF_ASC_NODE":"34.0452"},{"RA_OF_ASC_NODE":"58.8292","OBJECT_TYPE":"PAYLOAD","COUNTRY_CODE":"US","MEAN_ELEMENT_THEORY":"SGP4","MEAN_MOTION_DOT":"0.00005113","GP_ID":"195819247","RCS_SIZE":"LARGE","NORAD_CAT_ID":"47739","DECAY_DATE":null,"MEAN_MOTION_DDOT":"0.0000000000000","OBJECT_ID":"2021-017T","BSTAR":"0.00036168000000","INCLINATION":"53.0545","SITE":"AFETR","REV_AT_EPOCH":"5355","MEAN_MOTION":"15.06425570","ELEMENT_SET_NO":"999","PERIOD":"95.591","TIME_SYSTEM":"UTC","MEAN_ANOMALY":"294.9439","TLE_LINE2":"2 47739  53.0545  58.8292 0001548  65.1710 294.9439 15.06425570 53559","SEMIMAJOR_AXIS":"6925.270","CENTER_NAME":"EARTH","LAUNCH_DATE":"2021-03-04","REF_FRAME":"TEME","ECCENTRICITY":"0.00015480","PERIAPSIS":"546.063","EPHEMERIS_TYPE":"0","TLE_LINE1":"1 47739U 21017T   22043.40152278  .00005113  00000-0  36168-3 0  9998","EPOCH":"2022-02-12T09:38:11.568192","FILE":"3298493","CLASSIFICATION_TYPE":"U","ARG_OF_PERICENTER":"65.1710","OBJECT_NAME":"STARLINK-2150","APOAPSIS":"548.207"},{"ECCENTRICITY":"0.00016460","EPOCH":"2022-02-12T17:08:40.657344","TLE_LINE1":"1 47740U 21017U   22043.71435946  .00001700  00000-0  13299-3 0  9998","EPHEMERIS_TYPE":"0","PERIAPSIS":"546.046","CLASSIFICATION_TYPE":"U","FILE":"3298854","APOAPSIS":"548.326","ARG_OF_PERICENTER":"59.9959","OBJECT_NAME":"STARLINK-2152","REV_AT_EPOCH":"5312","SITE":"AFETR","INCLINATION":"53.0537","PERIOD":"95.592","ELEMENT_SET_NO":"999","MEAN_MOTION":"15.06408936","TIME_SYSTEM":"UTC","REF_FRAME":"TEME","LAUNCH_DATE":"2021-03-04","TLE_LINE2":"2 47740  53.0537  42.4271 0001646  59.9959 300.1193 15.06408936 53120","SEMIMAJOR_AXIS":"6925.321","CENTER_NAME":"EARTH","MEAN_ANOMALY":"300.1193","MEAN_MOTION_DDOT":"0.0000000000000","OBJECT_ID":"2021-017U","BSTAR":"0.00013299000000","RA_OF_ASC_NODE":"42.4271","MEAN_ELEMENT_THEORY":"SGP4","COUNTRY_CODE":"US","OBJECT_TYPE":"PAYLOAD","RCS_SIZE":"LARGE","GP_ID":"195829981","MEAN_MOTION_DOT":"0.00001700","DECAY_DATE":null,"NORAD_CAT_ID":"47740"},{"MEAN_MOTION_DDOT":"0.0000000000000","BSTAR":"0.00051088000000","OBJECT_ID":"2021-017V","RA_OF_ASC_NODE":"43.8497","MEAN_ELEMENT_THEORY":"SGP4","COUNTRY_CODE":"US","OBJECT_TYPE":"PAYLOAD","RCS_SIZE":"LARGE","GP_ID":"195820249","MEAN_MOTION_DOT":"0.00007340","DECAY_DATE":null,"NORAD_CAT_ID":"47741","ECCENTRICITY":"0.00016550","EPOCH":"2022-02-12T09:32:12.539904","TLE_LINE1":"1 47741U 21017V   22043.39736736  .00007340  00000-0  51088-3 0  9998","PERIAPSIS":"546.002","EPHEMERIS_TYPE":"0","CLASSIFICATION_TYPE":"U","FILE":"3298493","APOAPSIS":"548.294","ARG_OF_PERICENTER":"64.5316","OBJECT_NAME":"STARLINK-2154","REV_AT_EPOCH":"5371","INCLINATION":"53.0541","SITE":"AFETR","PERIOD":"95.591","ELEMENT_SET_NO":"999","MEAN_MOTION":"15.06421291","TIME_SYSTEM":"UTC","LAUNCH_DATE":"2021-03-04","REF_FRAME":"TEME","TLE_LINE2":"2 47741  53.0541  43.8497 0001655  64.5316 295.5844 15.06421291 53714","CENTER_NAME":"EARTH","SEMIMAJOR_AXIS":"6925.283","MEAN_ANOMALY":"295.5844"},{"EPOCH":"2022-02-12T17:47:09.756096","TLE_LINE1":"1 47742U 21017W   22043.74108514 -.00000593  00000-0 -20893-4 0  9991","EPHEMERIS_TYPE":"0","PERIAPSIS":"546.136","ECCENTRICITY":"0.00015300","APOAPSIS":"548.255","ARG_OF_PERICENTER":"64.9726","OBJECT_NAME":"STARLINK-2156","CLASSIFICATION_TYPE":"U","FILE":"3298855","PERIOD":"95.592","ELEMENT_SET_NO":"999","MEAN_MOTION":"15.06406024","REV_AT_EPOCH":"5327","INCLINATION":"53.0545","SITE":"AFETR","REF_FRAME":"TEME","LAUNCH_DATE":"2021-03-04","TLE_LINE2":"2 47742  53.0545  32.3163 0001530  64.9726 295.1421 15.06406024 53278","MEAN_ANOMALY":"295.1421","SEMIMAJOR_AXIS":"6925.330","CENTER_NAME":"EARTH","TIME_SYSTEM":"UTC","MEAN_MOTION_DDOT":"0.0000000000000","OBJECT_ID":"2021-017W","BSTAR":"-0.00002089300000","MEAN_ELEMENT_THEORY":"SGP4","COUNTRY_CODE":"US","OBJECT_TYPE":"PAYLOAD","RA_OF_ASC_NODE":"32.3163","DECAY_DATE":null,"NORAD_CAT_ID":"47742","RCS_SIZE":"LARGE","GP_ID":"195829498","MEAN_MOTION_DOT":"-0.00000593"},{"EPOCH":"2022-02-12T16:48:46.445184","TLE_LINE1":"1 47743U 21017X   22043.70053756 -.00001320  00000-0 -69685-4 0  9996","PERIAPSIS":"545.968","EPHEMERIS_TYPE":"0","ECCENTRICITY":"0.00017860","APOAPSIS":"548.442","ARG_OF_PERICENTER":"63.4392","OBJECT_NAME":"STARLINK-2157","FILE":"3298682","CLASSIFICATION_TYPE":"U","PERIOD":"95.592","ELEMENT_SET_NO":"999","MEAN_MOTION":"15.06402812","REV_AT_EPOCH":"5326","SITE":"AFETR","INCLINATION":"53.0556","REF_FRAME":"TEME","LAUNCH_DATE":"2021-03-04","CENTER_NAME":"EARTH","TLE_LINE2":"2 47743  53.0556  32.4806 0001786  63.4392 296.6780 15.06402812 53266","SEMIMAJOR_AXIS":"6925.340","MEAN_ANOMALY":"296.6780","TIME_SYSTEM":"UTC","MEAN_MOTION_DDOT":"0.0000000000000","OBJECT_ID":"2021-017X","BSTAR":"-0.00006968500000","MEAN_ELEMENT_THEORY":"SGP4","COUNTRY_CODE":"US","OBJECT_TYPE":"PAYLOAD","RA_OF_ASC_NODE":"32.4806","DECAY_DATE":null,"NORAD_CAT_ID":"47743","GP_ID":"195826507","RCS_SIZE":"LARGE","MEAN_MOTION_DOT":"-0.00001320"},{"MEAN_MOTION_DDOT":"0.0000000000000","BSTAR":"0.00012625000000","OBJECT_ID":"2021-017Y","RA_OF_ASC_NODE":"32.5923","MEAN_ELEMENT_THEORY":"SGP4","OBJECT_TYPE":"PAYLOAD","COUNTRY_CODE":"US","MEAN_MOTION_DOT":"0.00001600","RCS_SIZE":"LARGE","GP_ID":"195829991","DECAY_DATE":null,"NORAD_CAT_ID":"47744","ECCENTRICITY":"0.00017740","EPOCH":"2022-02-12T16:16:55.448256","PERIAPSIS":"545.963","EPHEMERIS_TYPE":"0","TLE_LINE1":"1 47744U 21017Y   22043.67841954  .00001600  00000-0  12625-3 0  9998","FILE":"3298855","CLASSIFICATION_TYPE":"U","APOAPSIS":"548.420","ARG_OF_PERICENTER":"64.4649","OBJECT_NAME":"STARLINK-2158","INCLINATION":"53.0550","SITE":"AFETR","REV_AT_EPOCH":"5326","ELEMENT_SET_NO":"999","PERIOD":"95.592","MEAN_MOTION":"15.06407233","TIME_SYSTEM":"UTC","TLE_LINE2":"2 47744  53.0550  32.5923 0001774  64.4649 295.6524 15.06407233 53262","SEMIMAJOR_AXIS":"6925.326","CENTER_NAME":"EARTH","MEAN_ANOMALY":"295.6524","LAUNCH_DATE":"2021-03-04","REF_FRAME":"TEME"},{"MEAN_MOTION_DDOT":"0.0000000000000","BSTAR":"0.00015240000000","OBJECT_ID":"2021-017Z","RA_OF_ASC_NODE":"43.9571","COUNTRY_CODE":"US","OBJECT_TYPE":"PAYLOAD","MEAN_ELEMENT_THEORY":"SGP4","RCS_SIZE":"LARGE","GP_ID":"195821750","MEAN_MOTION_DOT":"0.00001990","NORAD_CAT_ID":"47745","DECAY_DATE":null,"ECCENTRICITY":"0.00016660","TLE_LINE1":"1 47745U 21017Z   22043.37525637  .00001990  00000-0  15240-3 0  9991","EPHEMERIS_TYPE":"0","PERIAPSIS":"546.010","EPOCH":"2022-02-12T09:00:22.150368","FILE":"3298493","CLASSIFICATION_TYPE":"U","OBJECT_NAME":"STARLINK-2159","ARG_OF_PERICENTER":"67.7429","APOAPSIS":"548.318","REV_AT_EPOCH":"5370","SITE":"AFETR","INCLINATION":"53.0547","MEAN_MOTION":"15.06416217","PERIOD":"95.591","ELEMENT_SET_NO":"999","TIME_SYSTEM":"UTC","REF_FRAME":"TEME","LAUNCH_DATE":"2021-03-04","TLE_LINE2":"2 47745  53.0547  43.9571 0001666  67.7429 292.3737 15.06416217 53707","SEMIMAJOR_AXIS":"6925.299","MEAN_ANOMALY":"292.3737","CENTER_NAME":"EARTH"},{"DECAY_DATE":null,"NORAD_CAT_ID":"47746","RCS_SIZE":"LARGE","GP_ID":"195829490","MEAN_MOTION_DOT":"-0.00002023","MEAN_ELEMENT_THEORY":"SGP4","COUNTRY_CODE":"US","OBJECT_TYPE":"PAYLOAD","RA_OF_ASC_NODE":"42.4792","BSTAR":"-0.00011693000000","OBJECT_ID":"2021-017AA","MEAN_MOTION_DDOT":"0.0000000000000","REF_FRAME":"TEME","LAUNCH_DATE":"2021-03-04","TLE_LINE2":"2 47746  53.0550  42.4792 0001677  59.6512 300.4642 15.06396772 53121","CENTER_NAME":"EARTH","SEMIMAJOR_AXIS":"6925.358","MEAN_ANOMALY":"300.4642","TIME_SYSTEM":"UTC","PERIOD":"95.592","ELEMENT_SET_NO":"999","MEAN_MOTION":"15.06396772","REV_AT_EPOCH":"5312","SITE":"AFETR","INCLINATION":"53.0550","APOAPSIS":"548.385","ARG_OF_PERICENTER":"59.6512","OBJECT_NAME":"STARLINK-2160","CLASSIFICATION_TYPE":"U","FILE":"3298855","EPOCH":"2022-02-12T16:47:26.207232","TLE_LINE1":"1 47746U 21017AA  22043.69960888 -.00002023  00000-0 -11693-3 0  9996","EPHEMERIS_TYPE":"0","PERIAPSIS":"546.062","ECCENTRICITY":"0.00016770"}];
